{
  "norad_id": 64279,
  "name": "STARLINK-34377",
  "history": [
    {
      "epoch": "2026-05-02T00:41:23.004672Z",
      "apogee_km": 440.3573083627589,
      "perigee_km": 439.1178187671021,
      "latitude_deg": 5.275995046989605e-06,
      "longitude_deg": -2.1509022830966917,
      "height_km": 440.7347881597971,
      "semi_major_axis_km": 6817.87456356493,
      "eccentricity": 9.09e-05,
      "inclination_deg": 53.1615,
      "raan_deg": 228.1476,
      "arg_perigee_deg": 98.7081,
      "mean_anomaly_deg": 261.4028,
      "mean_motion_rev_day": 15.42159352
    },
    {
      "epoch": "2026-05-03T14:01:08.334336Z",
      "apogee_km": 440.848534367452,
      "perigee_km": 438.5986403736197,
      "latitude_deg": -9.280907792291897e-06,
      "longitude_deg": 149.02025118713854,
      "height_km": 440.268444867533,
      "semi_major_axis_km": 6817.8605873705355,
      "eccentricity": 0.000165,
      "inclination_deg": 53.1609,
      "raan_deg": 220.7907,
      "arg_perigee_deg": 71.4664,
      "mean_anomaly_deg": 288.6521,
      "mean_motion_rev_day": 15.42164094
    },
    {
      "epoch": "2026-05-04T11:47:39.004224Z",
      "apogee_km": 439.909626038786,
      "perigee_km": 439.49101082743437,
      "latitude_deg": 1.2446941326951643e-05,
      "longitude_deg": 177.2053980530727,
      "height_km": 440.81356407402797,
      "semi_major_axis_km": 6817.83731843311,
      "eccentricity": 3.07e-05,
      "inclination_deg": 53.1594,
      "raan_deg": 216.4979,
      "arg_perigee_deg": 183.4736,
      "mean_anomaly_deg": 176.6268,
      "mean_motion_rev_day": 15.42171989
    },
    {
      "epoch": "2026-05-05T15:47:27.254976Z",
      "apogee_km": 440.5622665581841,
      "perigee_km": 438.82099312612354,
      "latitude_deg": 2.0842176362858895e-05,
      "longitude_deg": 110.58747004848098,
      "height_km": 440.5227787904329,
      "semi_major_axis_km": 6817.8286298421535,
      "eccentricity": 0.0001277,
      "inclination_deg": 53.159,
      "raan_deg": 210.9808,
      "arg_perigee_deg": 85.2907,
      "mean_anomaly_deg": 274.8245,
      "mean_motion_rev_day": 15.42174937
    },
    {
      "epoch": "2026-05-06T15:07:20.256384Z",
      "apogee_km": 440.7521528010102,
      "perigee_km": 438.87721608778884,
      "latitude_deg": 4.315273833921526e-05,
      "longitude_deg": 115.06205763909296,
      "height_km": 440.3598257717683,
      "semi_major_axis_km": 6817.9516844444,
      "eccentricity": 0.0001375,
      "inclination_deg": 53.1586,
      "raan_deg": 206.3844,
      "arg_perigee_deg": 67.5874,
      "mean_anomaly_deg": 292.5278,
      "mean_motion_rev_day": 15.42133186
    },
    {
      "epoch": "2026-05-07T11:20:31.469280Z",
      "apogee_km": 440.48726333457944,
      "perigee_km": 438.74328230319225,
      "latitude_deg": 2.673667306874125e-05,
      "longitude_deg": 166.94832504901902,
      "height_km": 440.042741236361,
      "semi_major_axis_km": 6817.752272818885,
      "eccentricity": 0.0001279,
      "inclination_deg": 53.1597,
      "raan_deg": 202.3978,
      "arg_perigee_deg": 56.9526,
      "mean_anomaly_deg": 303.1603,
      "mean_motion_rev_day": 15.42200845
    },
    {
      "epoch": "2026-05-08T12:13:40.192608Z",
      "apogee_km": 440.60493557783866,
      "perigee_km": 438.71367888221357,
      "latitude_deg": -1.746853441922247e-05,
      "longitude_deg": 147.7356199529077,
      "height_km": 440.20792736319714,
      "semi_major_axis_km": 6817.796307230026,
      "eccentricity": 0.0001387,
      "inclination_deg": 53.1597,
      "raan_deg": 197.4935,
      "arg_perigee_deg": 68.0103,
      "mean_anomaly_deg": 292.105,
      "mean_motion_rev_day": 15.42185904
    },
    {
      "epoch": "2026-05-09T14:40:09.757056Z",
      "apogee_km": 440.54277605887546,
      "perigee_km": 438.9310306681218,
      "latitude_deg": -6.053727913920562e-06,
      "longitude_deg": 104.81562497678462,
      "height_km": 440.16388742271084,
      "semi_major_axis_km": 6817.873903363498,
      "eccentricity": 0.0001182,
      "inclination_deg": 53.1582,
      "raan_deg": 192.2826,
      "arg_perigee_deg": 53.7964,
      "mean_anomaly_deg": 306.3151,
      "mean_motion_rev_day": 15.42159576
    }
  ]
}